{"type":"FeatureCollection", "features": [
    {"type":"Feature","geometry":{"type":"Polygon","coordinates":[[[53.86221480017292,36.7815592002969],[53.662366599838776,36.79446520010896],[53.56160150000926,36.879307500041136],[53.237696499893616,36.8393397001671],[52.79974769949678,36.73566889979992],[52.439796399584225,36.67967970015809],[52.07789469948085,36.58991949988507],[51.910171899613545,36.5713052997998],[51.65960859985705,36.59938610008851],[51.4275113998313,36.68562110003381],[51.128704999536126,36.72452250001339],[50.95691939991042,36.778373899635824],[50.69141550022522,36.90432719964059],[50.59266989999594,36.9658360000314],[50.505388399455114,36.871945700134006],[50.432606000066926,36.85666790030342],[50.43232930025704,36.73000450010767],[50.35982359977936,36.641665899561644],[50.592058200025974,36.526876699799914],[50.679840599564045,36.4999975997095],[50.83456890003475,36.40471550002036],[50.8479126997114,36.294016100362796],[51.20153190007716,36.162488099945904],[51.45929649953388,36.140099500091935],[51.76989219976525,36.000227099601034],[51.87823110028512,35.85998470003392],[52.07268559956083,35.763317299953485],[52.21797070018772,35.76553489951607],[52.37825549969159,35.848591699847134],[52.43575810005632,35.91220889962108],[52.54103999989616,35.94053699998261],[52.70493829966284,35.928036099786254],[52.92078250021228,35.83775730005942],[53.01745139946257,35.85359459961114],[53.07440060020758,35.91748199979452],[53.21273909992959,35.9252603000229],[53.2246854997361,35.96804429990459],[53.370523900157934,36.06026620002518],[53.67915020022161,36.09832190003573],[53.88082459987544,36.215272700374896],[53.95083049982776,36.317216600066104],[53.881381300007035,36.3777734995474],[53.939160600181594,36.437497199636084],[54.126115199656795,36.491659100087475],[54.0983354995837,36.61972179952147],[53.96472040022633,36.67528500020268],[53.86193479985121,36.68610910005498],[53.86221480017292,36.7815592002969]]]},"properties":{"shapeName":"مازندران","shapeISO":"IR-27","shapeID":"17685810B10287014873220","shapeGroup":"IRN","shapeType":"ADM1"}},
    {"type":"Feature","geometry":{"type":"Polygon","coordinates":[[[58.31120479956189,37.66222200014522],[58.22704670024507,37.68403649978467],[58.20325439987073,37.7753637003745],[58.027855399806924,37.805902499800595],[57.79583519973471,37.899552999971036],[57.57962410007224,37.93804220018745],[57.512192299934725,37.91926299968776],[57.348333000167884,37.998888999727626],[57.37305599993448,38.07555600000944],[57.239166999457495,38.27388900007736],[57.16500000024985,38.27583299979318],[57.050833000042985,38.193610999647944],[56.909821799736335,38.21468739960386],[56.75638899965264,38.284999999850186],[56.59750000012497,38.24249999957539],[56.42444400019053,38.25472200022017],[56.33277919950052,38.197553700343065],[56.34981179967485,38.126604999720996],[56.28897559954436,38.08465830014052],[56.31038939995091,37.910313599592996],[56.21566029968312,37.85948219984368],[56.118710999912764,37.63474760012173],[56.0125413999657,37.46452439988121],[56.00398519965728,37.35946389963931],[55.90842299982165,37.33234049961442],[55.90870269976983,37.20557240034606],[56.00870490021106,37.23445669991685],[56.0592643000075,37.1533522998688],[55.984261599493266,36.90000820011841],[56.0209278001779,36.833063499780735],[56.23149550021719,36.89445349972931],[56.41511309958992,36.69278060014466],[56.53206519944945,36.66750340036168],[56.65873729968666,36.772784300155365],[57.017920100132585,36.87111809992041],[57.3487695994375,36.80972559985662],[57.58878009962194,36.734164499492124],[57.777397599519645,36.630273699771465],[57.96379570031138,36.5794443001144],[58.09630770024023,36.61444129972625],[58.098808300262874,36.868892900187234],[58.25881320016913,36.91083520028434],[58.30105270012206,36.9644638998891],[58.24409359963994,37.04695399962742],[58.159014799593365,37.075130500372325],[58.24714760018168,37.1811205003109],[58.38270599958224,37.20779219965033],[58.422985599805656,37.25639970008615],[58.3274269001314,37.325849999777745],[58.37091340003343,37.58467449972841],[58.31120479956189,37.66222200014522]]]},"properties":{"shapeName":"خراسان شمالی","shapeISO":"IR-12","shapeID":"17685810B58703616021829","shapeGroup":"IRN","shapeType":"ADM1"}},
    {"type":"Feature","geometry":{"type":"Polygon","coordinates":[[[59.463574699712694,30.51679460029061],[59.19383930004369,30.81680069979251],[59.07856120003942,30.907916600171006],[59.0585552001624,31.00847799995978],[58.780493000151864,31.155415499625633],[58.621875499654664,31.274033500046016],[58.499923699818964,31.39237660020001],[58.3029668000778,31.537926400083336],[58.07823709986235,31.658771200130843],[57.944345600169356,31.710712599806698],[57.746555199762724,31.75599170035673],[57.533491499732975,31.823491099834428],[57.36792699993117,31.84293939953369],[57.10263739969628,31.89960519962034],[56.913186800230676,31.95822170027128],[56.7734586995594,31.955720799875053],[56.60483779982468,31.92210599979211],[56.57900439993318,31.711274099620027],[56.53872500025864,31.7076627001735],[56.25565540027657,31.553493500125],[56.121195299723354,31.59067120011582],[56.04203519976471,31.573491299983573],[56.01286519996904,31.464873699561622],[55.93841969960948,31.37681579990931],[55.74007560010892,31.274596499928577],[55.60701410002076,31.245708999670626],[55.494788999612695,31.185975999692687],[55.210609600252894,31.091256499687745],[54.92670689980366,31.027095100358622],[54.711696600118046,31.065981800020097],[54.52557930004474,31.00209189972145],[54.5650252997778,30.607910099571484],[54.51390919984976,30.512080499815283],[54.33668179982527,30.380965499558215],[54.54780200016222,30.178187600277568],[54.54252199949076,29.86012089995961],[54.561411599865494,29.62649729951079],[54.77308849943478,29.608722299994213],[54.83531429961528,29.579837399676308],[55.01309810029716,29.367881999854433],[55.16727250022575,29.249830399653263],[55.26227769955625,29.094546599645923],[55.28061059979939,28.995102499580753],[55.24783100010063,28.747038100128293],[55.537009799962334,28.697310600204105],[55.815632200265895,28.81953880037537],[56.045088899932864,28.881483600188062],[56.0595320003016,28.752317699702132],[56.036475199670804,28.376201599524222],[56.073977799535896,28.262862300254994],[56.13592360029395,28.211191699937046],[56.304544299479915,28.14814339959827],[56.44454869976272,28.130639800186657],[56.65205880017356,28.143136800023342],[56.74345079961478,28.263140799608266],[56.98401709970943,28.243977600286087],[57.007906599709884,28.138697599814407],[57.00818290022073,27.9739721998572],[57.204026499523366,27.89479569986173],[57.41653300029776,27.89062799958259],[57.42514640018629,27.81007480031184],[57.227739100179406,27.593077800200376],[57.358712499482294,27.57448799962151],[57.31642159967714,27.491848800381888],[57.31930709964297,27.34479389961882],[57.400145699664336,27.255896800297137],[57.55236970030148,27.176452799657056],[57.622928499850445,27.08089040017188],[57.79849219995509,26.94311540035551],[58.00350219946699,26.910336699978757],[58.19184570021895,26.77922279959256],[58.37268270014653,26.753380599834884],[58.50019369967953,26.685887900306398],[58.59630520002503,26.588939200383834],[58.843814199765575,26.48310649996506],[59.00035510000794,26.50032289998188],[59.01604509960174,26.66254660004563],[58.99049260025333,26.759219999503443],[58.85354169958981,26.8247712003307],[58.9118741997346,26.988666599783812],[58.85992860022475,27.071448999871507],[58.83103640010984,27.25367349993212],[58.89854239971203,27.55895819986108],[58.89049009943858,27.89812349989967],[58.933823099456504,28.029801099840938],[59.033903799920495,28.115130399748182],[59.148384300195346,28.127376299876403],[59.16143919985922,28.25071859998343],[59.073828399960746,28.42369039999204],[59.23050630022561,28.476473199978273],[59.560794399541976,28.489803999954688],[59.56274150012018,28.69036760018463],[59.53940909955037,28.870367100161616],[59.496903199722965,28.960930000219378],[59.56940919967491,29.092323800203246],[59.51746349944102,29.18343930038344],[59.463571699574345,29.374269100138918],[59.43217989948283,29.907895499577705],[59.449406599435065,29.993447499502565],[59.42496119969968,30.25262589976552],[59.463574699712694,30.51679460029061]]]},"properties":{"shapeName":"کرمان","shapeISO":"IR-21","shapeID":"17685810B68217123081047","shapeGroup":"IRN","shapeType":"ADM1"}},
    {"type":"Feature","geometry":{"type":"Polygon","coordinates":[[[47.47997549976958,33.94214599993802],[47.391360200313045,33.930483499913635],[47.38663689977318,33.861311800299404],[47.28079910019835,33.78964619971242],[47.0521777996658,33.83325529969238],[46.85966739993063,33.73353199970205],[46.6952162994927,33.75714689980964],[46.620769999635854,33.83131339989353],[46.29853080025629,33.995480099626946],[46.281587699712645,33.95020359991628],[46.054910200145684,34.037704099764426],[46.01379779982864,33.984647699931486],[45.86739949948736,33.98908830038482],[45.85101019966106,33.7949230995215],[45.75656180028693,33.697690099618455],[45.69251999999807,33.69097000016541],[45.77166999967079,33.636935999496814],[45.8584850002826,33.632528999513795],[46.00725199978001,33.50781000013143],[46.115088000311005,33.309295999810615],[46.18046099957553,33.26526800011817],[46.198319000221716,33.19173699966285],[46.0843690001293,33.09149699958692],[46.14835700027538,33.05101199960416],[46.09651099978288,32.98168000033178],[46.1735559995098,32.95328500030257],[46.31232700029091,32.96881599975865],[46.518693000281814,32.89815599949981],[46.72061499948268,32.78596000025385],[46.88723799953408,32.63195400017702],[47.16840099990628,32.45728100031795],[47.28346099992524,32.49636999977571],[47.37956700001712,32.47321200023367],[47.465347999710445,32.39131599983358],[47.462085999469366,32.32485900004286],[47.56527799987987,32.19323199955721],[47.565707999924314,32.11207600000745],[47.66411099982281,32.04854200011329],[47.788433099607914,32.10346529988374],[47.98502349953492,32.26389349988517],[48.035453899677805,32.35396949979264],[48.02050390003501,32.5057074996015],[47.94257730030222,32.51701050013452],[47.96914660013556,32.6582799002972],[47.91611059962452,32.71406289978307],[48.01250249959071,32.79046050005206],[47.91472010025245,32.90795809988646],[47.75332520009795,32.99824010030045],[47.690542699785794,33.002402400150686],[47.49136859978108,33.11268219952393],[47.006066800142776,33.397967599525145],[46.840502099792104,33.55630199973757],[46.845781599541226,33.61047780011046],[47.031346099842665,33.64574939961517],[47.17885039992609,33.722700000204895],[47.408027600193634,33.7352035003413],[47.514698899534665,33.83214610016245],[47.47997549976958,33.94214599993802]]]},"properties":{"shapeName":"ایلام","shapeISO":"IR-06","shapeID":"17685810B16876171097638","shapeGroup":"IRN","shapeType":"ADM1"}},
    {"type":"Feature","geometry":{"type":"Polygon","coordinates":[[[47.96914660013556,32.6582799002972],[48.07276909971421,32.677089700229544],[48.04902660019752,32.805785199527406],[48.27969739991511,32.99712810028166],[48.38335419963664,32.96634020034003],[48.60315709982035,32.98035760032303],[48.70931639983206,32.93645899958324],[48.80656450025151,32.959628499655594],[48.89987559987907,32.88494070035307],[49.052784099706514,32.904753700323056],[49.2179906999109,32.85216579961201],[49.367164499642,32.84455149975196],[49.51553330002184,32.72518120025222],[49.7317497002885,32.80824249989149],[49.74869249955924,32.855736500239345],[49.639520600195624,32.96991059969446],[49.7220260000999,33.08435379968813],[49.83730799956459,33.04990840015262],[49.92147989987751,33.07213790004408],[49.87147709948863,33.191301000241026],[49.998705099460835,33.30352740016946],[49.947868800205015,33.38741959963488],[49.79647079988757,33.44659049995164],[49.71230160023873,33.56853190002721],[49.65146559975767,33.58630750029096],[49.56118339969419,33.716864300347254],[49.45554699969432,33.70201000026134],[49.40478520027682,33.75020189969797],[49.280893599659976,33.604091600047354],[49.21561110007224,33.61297480014696],[49.14171869985819,33.72159389973871],[49.0300465997708,33.69547750028647],[48.98226719957165,33.79826180024196],[49.00976629947519,33.909093900263315],[49.07757240014621,34.014709999866625],[48.85170469961224,34.00270729980207],[48.73086589984143,34.12104739981771],[48.672249999937605,34.07909510015878],[48.37918409996627,34.001316299507664],[48.17722979981545,34.08604399973086],[48.070557399704285,34.19909940011729],[47.886659299986775,34.2552091997448],[47.73193120006488,34.37271239965759],[47.694428399650974,34.27604759951714],[47.42413920016401,34.07631230007263],[47.47997549976958,33.94214599993802],[47.514698899534665,33.83214610016245],[47.408027600193634,33.7352035003413],[47.17885039992609,33.722700000204895],[47.031346099842665,33.64574939961517],[46.845781599541226,33.61047780011046],[46.840502099792104,33.55630199973757],[47.006066800142776,33.397967599525145],[47.49136859978108,33.11268219952393],[47.690542699785794,33.002402400150686],[47.75332520009795,32.99824010030045],[47.91472010025245,32.90795809988646],[48.01250249959071,32.79046050005206],[47.91611059962452,32.71406289978307],[47.96914660013556,32.6582799002972]]]},"properties":{"shapeName":"لرستان","shapeISO":"IR-26","shapeID":"17685810B13889842409055","shapeGroup":"IRN","shapeType":"ADM1"}},
    {"type":"Feature","geometry":{"type":"Polygon","coordinates":[[[49.947868800205015,33.38741959963488],[49.987314999587625,33.49408779991211],[50.1917691002638,33.531039699922246],[50.232881499681525,33.60270279949464],[50.45372529948304,33.63465210011441],[50.575673799706124,33.63159189964648],[50.70067850021269,33.72631759957761],[50.90374609990266,33.71048380018726],[51.00930449990278,33.77297979987793],[51.048750599460675,33.93660110036052],[51.050454099776914,34.03837150014465],[50.90818869954887,34.151882599602345],[50.79623989965171,34.23605369951866],[50.6581783002884,34.254103999500046],[50.51706020026808,34.18993390012946],[50.42844430006443,34.2113239998028],[50.42455429964127,34.277442500171276],[50.26982609989466,34.452997600059234],[50.1595406995437,34.468554900188565],[50.086204600162205,34.583562100110896],[50.1314835999882,34.77467450012813],[50.251488699443996,34.81467870006202],[50.34121769953725,34.759950500115565],[50.43400009942508,34.75745140016204],[50.48177939979951,34.85662150018214],[50.705123000126434,34.86828679979601],[50.64984039961479,34.99968030030567],[50.849009299739464,35.173028599690156],[50.890686999505476,35.22746040017739],[50.9654125001868,35.42635890024309],[50.875360600311524,35.48525199997988],[50.76762459989544,35.48691849948921],[50.62594939954522,35.54747470019731],[50.353439299983734,35.570529300187104],[50.22954420010478,35.5413610001101],[49.9723071996176,35.506087399613875],[49.850635499928444,35.543858000146656],[49.80202279961259,35.51440959992317],[49.687573899715744,35.5341378999442],[49.68229420031713,35.447196299969335],[49.5720123001276,35.41024249969166],[49.43228389998205,35.41941309973481],[49.3556151001568,35.29968970031945],[49.37033509998491,35.234961999696566],[49.46812089965982,35.17023999987617],[49.407005100305184,35.034678299963616],[49.30644619973236,35.08495739996408],[49.27588679953624,35.012180800303724],[49.414228400120635,35.001626899961536],[49.38978229981336,34.917451799860714],[49.30366659943405,34.91190349994662],[49.149215599520346,34.79717419952976],[49.105046199422645,34.72800919986474],[49.13477279952514,34.61355410004171],[49.001154499480606,34.59744729975313],[49.05393430022781,34.51077609983719],[49.00309819972222,34.4624438000414],[49.00893189948761,34.324108099908926],[49.110604099599584,34.25577119958126],[49.09393800013862,34.16271970005414],[49.167274099520114,34.093546500370735],[49.07757240014621,34.014709999866625],[49.00976629947519,33.909093900263315],[48.98226719957165,33.79826180024196],[49.0300465997708,33.69547750028647],[49.14171869985819,33.72159389973871],[49.21561110007224,33.61297480014696],[49.280893599659976,33.604091600047354],[49.40478520027682,33.75020189969797],[49.45554699969432,33.70201000026134],[49.56118339969419,33.716864300347254],[49.65146559975767,33.58630750029096],[49.71230160023873,33.56853190002721],[49.79647079988757,33.44659049995164],[49.947868800205015,33.38741959963488]]]},"properties":{"shapeName":"مرکزی","shapeISO":"IR-28","shapeID":"17685810B67379877863322","shapeGroup":"IRN","shapeType":"ADM1"}},
    {"type":"Feature","geometry":{"type":"Polygon","coordinates":[[[49.51553330002184,32.72518120025222],[49.50007719970307,32.703093199691466],[49.66445550002135,32.53697649996553],[49.91151819950534,32.316082400182665],[49.93682079974019,32.18607410023958],[50.11821759976249,32.01642920004758],[50.23962019981241,31.940171599939447],[50.2814445996886,31.85888430027029],[50.457542300137106,31.614155800150115],[50.29324149979544,31.481570599903307],[50.4117831999348,31.415426000309708],[50.512341700309264,31.450427400304307],[50.56873420002336,31.412374800256885],[50.691239299654,31.404322099785134],[50.78929820005192,31.314316200232497],[50.89236620014009,31.308755399741983],[51.03097650016542,31.181811299551896],[51.148760099698904,31.150146500360734],[51.18737290003935,31.209589999578895],[51.329877399422514,31.195986199603453],[51.33876719964661,31.287089799954344],[51.25959799944815,31.45932069979051],[51.30543380012983,31.66182459992541],[51.36904630004676,31.712655499651646],[51.296820299517265,31.82294130020091],[51.41210549966911,31.861828699534897],[51.434048400013694,31.97016750022999],[51.345712599956585,32.13961810009528],[51.233760799921015,32.17433560030776],[51.14431189997424,32.287671900337955],[50.985417199644075,32.37600639997544],[51.00902990000992,32.51489730017033],[50.87235470000945,32.70768420006584],[50.651846299667056,32.71051449964449],[50.45817049996867,32.66073080018634],[50.4590038999101,32.58795380032768],[50.33288549966613,32.537117900370845],[50.255939799482235,32.56435059950064],[50.1659343001279,32.65795849968504],[49.98231679968063,32.63461720032359],[49.752859599990586,32.776016799835475],[49.7317497002885,32.80824249989149],[49.51553330002184,32.72518120025222]]]},"properties":{"shapeName":"چهارمحال و بختیاری","shapeISO":"IR-09","shapeID":"17685810B6126582797818","shapeGroup":"IRN","shapeType":"ADM1"}},
    {"type":"Feature","geometry":{"type":"Polygon","coordinates":[[[47.47997549976958,33.94214599993802],[47.42413920016401,34.07631230007263],[47.694428399650974,34.27604759951714],[47.73193120006488,34.37271239965759],[47.886659299986775,34.2552091997448],[47.98860779971022,34.39799049966189],[48.04777700030837,34.390771100206166],[48.10500289996389,34.46744130027582],[48.08638929972648,34.57438170015541],[47.865544999901886,34.63327610031183],[47.865268300092055,34.72244869974776],[47.807488599719136,34.821061700337225],[47.92235340008938,34.93453510021476],[47.8399877997972,34.9388380000737],[47.80304140004063,35.01495619986878],[47.728592000220715,35.06217809953972],[47.39968899984751,35.06161809979551],[47.17773579996725,34.911898999739094],[47.111900099510024,34.90606200036109],[47.07856389950439,34.79716970022156],[47.01328540010121,34.74605849979997],[46.894942999619786,34.7643915996926],[46.78299479957042,34.73939019949813],[46.728268199517856,34.84771849970906],[46.55622309961643,34.92190120018029],[46.49964709953406,35.036340599639004],[46.44659119972414,35.053840099940714],[46.34713860016632,35.17051259967678],[46.15790959994814,35.283279799723005],[46.19841800029053,35.191060999565536],[46.19129099987981,35.11088800038095],[46.07713300008794,35.05221399977631],[45.943474999471675,35.09072699965134],[45.88038999959883,35.03798500010771],[45.865039999496446,34.89632800023708],[45.70401999972324,34.789633000162894],[45.69114499954213,34.70525999974922],[45.73461699967487,34.55831899992194],[45.51198999983865,34.55163500015516],[45.44492800002723,34.46409700037634],[45.46774629955212,34.37914610011251],[45.56143700031737,34.332624999843915],[45.58159399996316,34.14612999979971],[45.47351599996347,34.07560799960953],[45.46684800003521,34.00982200018524],[45.69251999999807,33.69097000016541],[45.75656180028693,33.697690099618455],[45.85101019966106,33.7949230995215],[45.86739949948736,33.98908830038482],[46.01379779982864,33.984647699931486],[46.054910200145684,34.037704099764426],[46.281587699712645,33.95020359991628],[46.29853080025629,33.995480099626946],[46.620769999635854,33.83131339989353],[46.6952162994927,33.75714689980964],[46.85966739993063,33.73353199970205],[47.0521777996658,33.83325529969238],[47.28079910019835,33.78964619971242],[47.38663689977318,33.861311800299404],[47.391360200313045,33.930483499913635],[47.47997549976958,33.94214599993802]]]},"properties":{"shapeName":"کرمانشاه","shapeISO":"IR-22","shapeID":"17685810B90334917415902","shapeGroup":"IRN","shapeType":"ADM1"}},
    {"type":"Feature","geometry":{"type":"Polygon","coordinates":[[[49.07757240014621,34.014709999866625],[49.167274099520114,34.093546500370735],[49.09393800013862,34.16271970005414],[49.110604099599584,34.25577119958126],[49.00893189948761,34.324108099908926],[49.00309819972222,34.4624438000414],[49.05393430022781,34.51077609983719],[49.001154499480606,34.59744729975313],[49.13477279952514,34.61355410004171],[49.105046199422645,34.72800919986474],[49.149215599520346,34.79717419952976],[49.30366659943405,34.91190349994662],[49.38978229981336,34.917451799860714],[49.414228400120635,35.001626899961536],[49.27588679953624,35.012180800303724],[49.30644619973236,35.08495739996408],[49.407005100305184,35.034678299963616],[49.46812089965982,35.17023999987617],[49.37033509998491,35.234961999696566],[49.3556151001568,35.29968970031945],[49.43228389998205,35.41941309973481],[49.16088040001051,35.49330009952001],[49.12727060015811,35.56885929961703],[48.883922900221705,35.699415700374345],[48.73632370007874,35.7239575002385],[48.77503139957946,35.60136190003169],[48.54279709970643,35.584970199914835],[48.48362780018289,35.6452503995863],[48.391678900061265,35.643023400309744],[48.251670299944465,35.72024819969471],[48.11860860020681,35.67080869956186],[47.956937600090214,35.57108389950241],[47.86609869989513,35.5582985995008],[47.954434699601734,35.37940770010533],[48.026660799956005,35.37079580028603],[48.17753719978202,35.17079789970336],[48.1758365997793,34.99884609996758],[48.13722419963716,34.9685630002823],[47.92235340008938,34.93453510021476],[47.807488599719136,34.821061700337225],[47.865268300092055,34.72244869974776],[47.865544999901886,34.63327610031183],[48.08638929972648,34.57438170015541],[48.10500289996389,34.46744130027582],[48.04777700030837,34.390771100206166],[47.98860779971022,34.39799049966189],[47.886659299986775,34.2552091997448],[48.070557399704285,34.19909940011729],[48.17722979981545,34.08604399973086],[48.37918409996627,34.001316299507664],[48.672249999937605,34.07909510015878],[48.73086589984143,34.12104739981771],[48.85170469961224,34.00270729980207],[49.07757240014621,34.014709999866625]]]},"properties":{"shapeName":"همدان","shapeISO":"IR-30","shapeID":"17685810B60472007491578","shapeGroup":"IRN","shapeType":"ADM1"}},
    {"type":"Feature","geometry":{"type":"Polygon","coordinates":[[[50.35982359977936,36.641665899561644],[50.201205600158346,36.67805589956015],[50.05815390018239,36.60406159986297],[49.93897099961197,36.60263790021895],[49.787661300128946,36.55938290020072],[49.61562199995541,36.60693899963519],[49.499783599833336,36.60083279989385],[49.280605199670276,36.815557799552835],[49.18914869995257,36.76075390007247],[49.097788599464366,36.768528299941124],[48.975592700243,36.54610090013648],[49.10976499975499,36.43360140038436],[49.33699930017764,36.3894352000745],[49.43367190013811,36.19304049981929],[49.39783589960712,36.04636609951592],[49.30199729943587,35.975818199750165],[49.20893829956293,35.98220789997464],[49.032264099508666,35.88275819983113],[48.90281180002461,35.98220739995162],[48.784473700101216,35.88414589961366],[48.73632370007874,35.7239575002385],[48.883922900221705,35.699415700374345],[49.12727060015811,35.56885929961703],[49.16088040001051,35.49330009952001],[49.43228389998205,35.41941309973481],[49.5720123001276,35.41024249969166],[49.68229420031713,35.447196299969335],[49.687573899715744,35.5341378999442],[49.80202279961259,35.51440959992317],[49.850635499928444,35.543858000146656],[49.9723071996176,35.506087399613875],[50.22954420010478,35.5413610001101],[50.16787489950707,35.596360299788046],[50.243710699589144,35.64775079995951],[50.2504030000984,35.80693800028854],[50.37316180027693,35.89830849963761],[50.42594110010174,36.00164959954941],[50.533446499956085,36.01387039959934],[50.60261549980555,36.09748180014503],[50.60094850027315,36.16665039979614],[50.43206360005513,36.24524509958172],[50.40966399969386,36.30226609950097],[50.49594280022012,36.34221419972556],[50.63845129978773,36.335547799691255],[50.8479126997114,36.294016100362796],[50.83456890003475,36.40471550002036],[50.679840599564045,36.4999975997095],[50.592058200025974,36.526876699799914],[50.35982359977936,36.641665899561644]]]},"properties":{"shapeName":"قزوین","shapeISO":"IR-18","shapeID":"17685810B64585898126645","shapeGroup":"IRN","shapeType":"ADM1"}},
    {"type":"Feature","geometry":{"type":"Polygon","coordinates":[[[50.59266989999594,36.9658360000314],[50.31022769944883,37.1414296997209],[50.184885799939764,37.38544580008369],[49.96686109956016,37.43012029991195],[49.55478529980178,37.46644719987842],[49.35559639965419,37.50543899971012],[49.09697159955971,37.63876050009708],[49.000916199822825,37.73440589981249],[48.93230419957922,37.90326860026573],[48.91732399980282,38.14326120034417],[48.87393919973431,38.3396177999216],[48.882290100108094,38.441787299944],[48.79132359960448,38.45174769989649],[48.65928329948474,38.3933658998165],[48.58182639946881,38.46033830017245],[48.58306840008663,38.348926200383914],[48.690017699657176,38.22225620006361],[48.635848399584006,38.11837070004782],[48.570846500165885,37.89169390015343],[48.59195969948058,37.8030770997284],[48.651129499926526,37.78308309950552],[48.61223689981313,37.65197239980648],[48.67612940005182,37.597243400362686],[48.69446640030418,37.50724390038573],[48.75641259946195,37.43001419969562],[48.90475489951905,37.31445849966008],[48.92225489984378,37.17667369993137],[49.056707099852815,37.05445009979235],[49.280605199670276,36.815557799552835],[49.499783599833336,36.60083279989385],[49.61562199995541,36.60693899963519],[49.787661300128946,36.55938290020072],[49.93897099961197,36.60263790021895],[50.05815390018239,36.60406159986297],[50.201205600158346,36.67805589956015],[50.35982359977936,36.641665899561644],[50.43232930025704,36.73000450010767],[50.432606000066926,36.85666790030342],[50.505388399455114,36.871945700134006],[50.59266989999594,36.9658360000314]]]},"properties":{"shapeName":"گیلان","shapeISO":"IR-25","shapeID":"17685810B84447356108506","shapeGroup":"IRN","shapeType":"ADM1"}},
    {"type":"Feature","geometry":{"type":"Polygon","coordinates":[[[48.73632370007874,35.7239575002385],[48.784473700101216,35.88414589961366],[48.90281180002461,35.98220739995162],[49.032264099508666,35.88275819983113],[49.20893829956293,35.98220789997464],[49.30199729943587,35.975818199750165],[49.39783589960712,36.04636609951592],[49.43367190013811,36.19304049981929],[49.33699930017764,36.3894352000745],[49.10976499975499,36.43360140038436],[48.975592700243,36.54610090013648],[49.097788599464366,36.768528299941124],[49.18914869995257,36.76075390007247],[49.280605199670276,36.815557799552835],[49.056707099852815,37.05445009979235],[48.92225489984378,37.17667369993137],[48.790026299674025,37.13917429985412],[48.73752350000956,37.18556410000326],[48.577515500140294,37.103058700098984],[48.39945019996679,37.25168270019651],[48.332504499583024,37.242513700047255],[48.15027329957314,37.221124800069504],[48.0997138997767,37.155839499992965],[47.84247989942787,37.169175400024756],[47.77303429959329,37.08139420018222],[47.65886220023043,37.09834089981274],[47.604693298556924,37.041396399824066],[47.51274400003564,37.02139659987324],[47.256897300170294,36.865826700341984],[47.17411530028096,36.79166700003208],[47.291344799622834,36.68637979958811],[47.37135139994723,36.438047500192056],[47.568582600106936,36.41665429965627],[47.782203399567265,36.37193789951448],[47.94109840027102,36.310543000059454],[47.99582519997307,36.14914700003408],[47.95498949946585,36.04997699983875],[47.862207399951615,35.94135959996561],[47.909710499639914,35.88914649981115],[48.01693890021011,35.90553290022319],[48.051105599843595,35.80747280012969],[48.1716675999798,35.78913810034311],[48.251670299944465,35.72024819969471],[48.391678900061265,35.643023400309744],[48.48362780018289,35.6452503995863],[48.54279709970643,35.584970199914835],[48.77503139957946,35.60136190003169],[48.73632370007874,35.7239575002385]]]},"properties":{"shapeName":"زنجان","shapeISO":"IR-14","shapeID":"17685810B38369866596405","shapeGroup":"IRN","shapeType":"ADM1"}},
    {"type":"Feature","geometry":{"type":"Polygon","coordinates":[[[53.01745139946257,35.85359459961114],[53.156069799681575,35.796094299712195],[52.98467169993904,35.67275320020008],[52.87716630008475,35.62608849978449],[52.782164199818,35.54108390010197],[52.69771530022098,35.55192159950229],[52.56298689952587,35.4174689003695],[52.36880919988471,35.34107829952393],[52.257693700104255,35.4405263997736],[52.02518309972032,35.50164429994453],[51.929624199497255,35.55858429972568],[51.91240130007998,35.414411499491166],[51.9439291001479,35.36130209991205],[51.872398499491226,35.28107839964849],[51.95490099998119,35.15079680023217],[52.034630299748585,35.09051709968446],[52.036850299601724,35.003019199776304],[51.96490459976752,34.865238699706254],[51.91434539962057,34.69690279962458],[51.83416779950437,34.505955900044796],[52.014627800033,34.43050220031637],[52.13963299966326,34.40272539965753],[52.394369799426784,34.429392499864036],[52.56354440005407,34.40494560005942],[52.74855209949982,34.33327259985066],[52.88050049969837,34.24910590031709],[54.10750189979291,34.251885899914384],[54.81142660005759,34.246055399936836],[55.47867820003893,34.251885399891364],[55.58118359954352,34.23938549974105],[55.919532700074114,34.245775100140804],[55.995368599980964,34.38021829973479],[56.22797359950209,34.710417199793994],[56.453723700188675,34.99996089957591],[56.56206259980917,35.052460299803045],[56.69095770003787,35.0624637997646],[56.84374269956601,35.19774250011636],[57.01069399982828,35.22357320024304],[57.052363700124715,35.32108359962848],[56.99125130020741,35.441913999731355],[57.04819759973947,35.537746300151696],[56.9154125998117,35.69275679978654],[56.72179530011306,35.8599842000109],[56.73123879943108,36.08998510013231],[56.80040799982936,36.23860719996236],[56.70318279974646,36.39332950015637],[56.76818539973647,36.41832699999111],[56.86874790029543,36.53777299992407],[56.76929579986131,36.615829799905384],[56.75846280031806,36.70389219976528],[56.53206519944945,36.66750340036168],[56.41511309958992,36.69278060014466],[56.23149550021719,36.89445349972931],[56.0209278001779,36.833063499780735],[55.984261599493266,36.90000820011841],[56.0592643000075,37.1533522998688],[56.00870490021106,37.23445669991685],[55.90870269976983,37.20557240034606],[55.90842299982165,37.33234049961442],[55.720081400236495,37.271131900117155],[55.68674499968205,37.163908499777506],[55.621465799706925,37.09917579982334],[55.57923929945417,36.95555979954514],[55.40089779949392,36.816957099690455],[55.01004540017516,36.76722099954952],[54.86531689985509,36.629447700351136],[54.77809130027333,36.60027809985445],[54.70086549994295,36.6325006999474],[54.490577900050084,36.511384599619646],[54.37918230012309,36.52083269986923],[54.126115199656795,36.491659100087475],[53.939160600181594,36.437497199636084],[53.881381300007035,36.3777734995474],[53.95083049982776,36.317216600066104],[53.88082459987544,36.215272700374896],[53.67915020022161,36.09832190003573],[53.370523900157934,36.06026620002518],[53.2246854997361,35.96804429990459],[53.21273909992959,35.9252603000229],[53.07440060020758,35.91748199979452],[53.01745139946257,35.85359459961114]]]},"properties":{"shapeName":"سمنان","shapeISO":"IR-15","shapeID":"17685810B43663780619119","shapeGroup":"IRN","shapeType":"ADM1"}},
    {"type":"Feature","geometry":{"type":"Polygon","coordinates":[[[49.7317497002885,32.80824249989149],[49.752859599990586,32.776016799835475],[49.98231679968063,32.63461720032359],[50.1659343001279,32.65795849968504],[50.255939799482235,32.56435059950064],[50.33288549966613,32.537117900370845],[50.4590038999101,32.58795380032768],[50.45817049996867,32.66073080018634],[50.651846299667056,32.71051449964449],[50.87235470000945,32.70768420006584],[51.00902990000992,32.51489730017033],[50.985417199644075,32.37600639997544],[51.14431189997424,32.287671900337955],[51.233760799921015,32.17433560030776],[51.345712599956585,32.13961810009528],[51.434048400013694,31.97016750022999],[51.41210549966911,31.861828699534897],[51.296820299517265,31.82294130020091],[51.36904630004676,31.712655499651646],[51.30543380012983,31.66182459992541],[51.25959799944815,31.45932069979051],[51.33876719964661,31.287089799954344],[51.329877399422514,31.195986199603453],[51.32710089998659,31.12126059999673],[51.37766049943258,30.996530399558367],[51.50849860023027,30.878477499836777],[51.78545489942411,30.701524000032634],[51.8585137000473,30.800414499929275],[51.83240070003234,30.87597770021074],[51.8976830997953,30.98930979950768],[51.9685183995046,31.21348140024645],[51.9365720999225,31.413486599726866],[52.04630039994356,31.595709999916608],[52.130469099569325,31.65655259962284],[52.24742089995465,31.661545499825024],[52.37297919973031,31.55460450009764],[52.55965660027192,31.512379699563553],[52.80105659978233,31.494874299709238],[52.94606129988915,31.490152699787302],[53.059679700158085,31.51154030024469],[53.19440779958035,31.573212000233696],[53.19801769985702,31.613487600272606],[53.029399900085366,31.784885999489347],[53.00939689944738,31.879887599732967],[53.042456399643186,31.98988820008043],[53.05884599984307,32.332115900328574],[53.010786499497385,32.509065700321855],[53.16051450014413,32.605464099688504],[53.477196900116894,32.697961300273846],[53.80415589987496,32.67990259972527],[53.941383999472066,32.79880120031521],[54.20667390008049,32.887405500163766],[54.30751259952689,33.03019230033442],[54.38973819965827,33.065188700098474],[54.56419259950894,33.090469800241124],[54.725863800174295,33.06491780001653],[54.877815200111456,33.17158510007238],[54.991710400014995,33.12574570030387],[55.1833846002192,33.298528300041085],[55.38645200025968,33.364923600044165],[55.49784400020053,33.52909189967147],[55.47867820003893,34.251885399891364],[54.81142660005759,34.246055399936836],[54.10750189979291,34.251885899914384],[52.88050049969837,34.24910590031709],[52.74855209949982,34.33327259985066],[52.56354440005407,34.40494560005942],[52.394369799426784,34.429392499864036],[52.13963299966326,34.40272539965753],[52.014627800033,34.43050220031637],[51.83416779950437,34.505955900044796],[51.80078159989097,34.51098399971187],[51.325986399852525,34.44105990029419],[51.147365100119316,34.439110500149525],[51.021250100212,34.38244649960632],[51.00847050011356,34.26438399962194],[50.90818869954887,34.151882599602345],[51.050454099776914,34.03837150014465],[51.048750599460675,33.93660110036052],[51.00930449990278,33.77297979987793],[50.90374609990266,33.71048380018726],[50.70067850021269,33.72631759957761],[50.575673799706124,33.63159189964648],[50.45372529948304,33.63465210011441],[50.232881499681525,33.60270279949464],[50.1917691002638,33.531039699922246],[49.987314999587625,33.49408779991211],[49.947868800205015,33.38741959963488],[49.998705099460835,33.30352740016946],[49.87147709948863,33.191301000241026],[49.92147989987751,33.07213790004408],[49.83730799956459,33.04990840015262],[49.7220260000999,33.08435379968813],[49.639520600195624,32.96991059969446],[49.74869249955924,32.855736500239345],[49.7317497002885,32.80824249989149]]]},"properties":{"shapeName":"اصفهان","shapeISO":"IR-04","shapeID":"17685810B20487167396081","shapeGroup":"IRN","shapeType":"ADM1"}},
    {"type":"Feature","geometry":{"type":"Polygon","coordinates":[[[50.29324149979544,31.481570599903307],[50.24792219954992,31.418217399713285],[50.29674319993876,31.35247339952781],[50.15270629985588,31.251831700172886],[49.95466999962082,31.211404700166838],[49.989162600073996,31.12787419993441],[49.97056349960587,31.019853899537907],[49.88961790004612,30.96881149995079],[49.95550529982978,30.877363999748866],[50.069747899745835,30.82993170008797],[50.21042249999846,30.932263499860653],[50.26105500028808,30.748990300362095],[50.51380399975483,30.620317999975782],[50.49800110017071,30.526636900372694],[50.38645549962166,30.524084000276446],[50.52075939962663,30.390424499591006],[50.513893299736026,30.166060599517095],[50.53873379952529,29.967064700175797],[50.603183099720354,29.943728199596762],[50.68679500028907,29.995958799658922],[50.8604157996495,29.973731499509142],[50.95597419984949,30.15595539972196],[51.0662557996655,30.20039870004001],[51.18209419978757,30.20790539961456],[51.26904280008523,30.27957179969883],[51.295155700275416,30.37179639958424],[51.201263500110485,30.477634399707824],[51.13653750010559,30.59846889981992],[51.17737359991173,30.649855700180467],[51.34960129996006,30.562633000012966],[51.37432789971285,30.475965199534357],[51.583781399991665,30.42346509963471],[51.62739419978254,30.440402600099958],[51.749065799646985,30.371517099834364],[51.82573459947224,30.43596299969272],[51.8335143997698,30.519298999948944],[51.887126899886596,30.60096949984262],[51.78545489942411,30.701524000032634],[51.50849860023027,30.878477499836777],[51.37766049943258,30.996530399558367],[51.32710089998659,31.12126059999673],[51.329877399422514,31.195986199603453],[51.18737290003935,31.209589999578895],[51.148760099698904,31.150146500360734],[51.03097650016542,31.181811299551896],[50.89236620014009,31.308755399741983],[50.78929820005192,31.314316200232497],[50.691239299654,31.404322099785134],[50.56873420002336,31.412374800256885],[50.512341700309264,31.450427400304307],[50.4117831999348,31.415426000309708],[50.29324149979544,31.481570599903307]]]},"properties":{"shapeName":"کهگیلویه و بویراحمد","shapeISO":"IR-23","shapeID":"17685810B7382218659393","shapeGroup":"IRN","shapeType":"ADM1"}},
    {"type":"Feature","geometry":{"type":"Polygon","coordinates":[[[47.92235340008938,34.93453510021476],[48.13722419963716,34.9685630002823],[48.1758365997793,34.99884609996758],[48.17753719978202,35.17079789970336],[48.026660799956005,35.37079580028603],[47.954434699601734,35.37940770010533],[47.86609869989513,35.5582985995008],[47.956937600090214,35.57108389950241],[48.11860860020681,35.67080869956186],[48.251670299944465,35.72024819969471],[48.1716675999798,35.78913810034311],[48.051105599843595,35.80747280012969],[48.01693890021011,35.90553290022319],[47.909710499639914,35.88914649981115],[47.862207399951615,35.94135959996561],[47.95498949946585,36.04997699983875],[47.99582519997307,36.14914700003408],[47.94109840027102,36.310543000059454],[47.782203399567265,36.37193789951448],[47.568582600106936,36.41665429965627],[47.37135139994723,36.438047500192056],[47.39107490028647,36.33859579995624],[47.29856930003325,36.24776349988565],[47.11883810019822,36.25553839977738],[46.89716010005861,36.3830429997347],[46.788820900064536,36.42693040031776],[46.67548269976686,36.396374699932494],[46.49964129980617,36.41859730022526],[46.41324889961709,36.38497849995787],[46.280187500252964,36.3880409999922],[46.14545849971006,36.46331959991966],[45.98100749999617,36.419712699681384],[45.95517179963889,36.24358820033524],[45.846556300033285,36.220810599629544],[45.677937799689744,36.220260499622384],[45.64626879976532,36.129424700289746],[45.5657102998905,36.079979500253785],[45.55797430017384,35.99510269962991],[45.66562499989391,35.926915999573794],[45.77307229994676,35.81331400024095],[45.95682900015828,35.827070999726914],[46.09261399993619,35.857486000278755],[46.28123800013367,35.73298200001932],[46.16747199953318,35.6902570001605],[46.03572099962446,35.70527800037945],[45.985424999564145,35.49602300026129],[46.07407500026113,35.36413699952294],[46.15790959994814,35.283279799723005],[46.34713860016632,35.17051259967678],[46.44659119972414,35.053840099940714],[46.49964709953406,35.036340599639004],[46.55622309961643,34.92190120018029],[46.728268199517856,34.84771849970906],[46.78299479957042,34.73939019949813],[46.894942999619786,34.7643915996926],[47.01328540010121,34.74605849979997],[47.07856389950439,34.79716970022156],[47.111900099510024,34.90606200036109],[47.17773579996725,34.911898999739094],[47.39968899984751,35.06161809979551],[47.728592000220715,35.06217809953972],[47.80304140004063,35.01495619986878],[47.8399877997972,34.9388380000737],[47.92235340008938,34.93453510021476]]]},"properties":{"shapeName":"کردستان","shapeISO":"IR-20","shapeID":"17685810B3064942505232","shapeGroup":"IRN","shapeType":"ADM1"}},
    {"type":"Feature","geometry":{"type":"Polygon","coordinates":[[[47.17411530028096,36.79166700003208],[47.09633609943148,36.83111080002345],[46.960494400096536,36.74722279859333],[46.872158699864144,36.79305269972235],[46.89882449965097,36.894715099921996],[46.86271149983588,36.99972969966598],[46.702982799716494,37.07167129859158],[46.52880799998928,37.01971990025322],[46.41241239971254,37.05638810013079],[46.28629439966687,36.971671100041306],[46.17545599989455,36.99555120032767],[45.982670500243444,37.162223299765515],[45.75237939968957,37.182227099900786],[45.71838249925298,37.26156952931041],[45.54122765113527,37.48068210269696],[45.20357367438561,38.200421898252046],[45.08206419980303,38.332534600091776],[45.3234642002127,38.48281340041814],[45.233457199889926,38.66503999859714],[45.27568370014268,38.73198769997242],[45.265126500187876,38.85393169998804],[45.371521400092604,38.95699009981331],[45.45290469969217,38.992996500288314],[45.4559929985781,39.045019900148304],[45.35258699999014,39.13295469969967],[45.14806710041643,39.229162000326085],[45.086703699716,39.3512472001982],[44.965143800146336,39.4210424996117],[44.9057982002268,39.57562710011064],[44.613337900124066,39.78165020029655],[44.467197399440465,39.68410189988282],[44.48014800023009,39.61042399966789],[44.416204000314394,39.55644000040576],[44.421957100140105,39.411603899800184],[44.29520029995393,39.375258099681616],[44.21889599985059,39.41780289968415],[44.05131570025941,39.40405849970006],[44.115888099656104,39.18872270029243],[44.22121209855953,39.090763600359935],[44.173000100174534,38.98828010024647],[44.21135179944605,38.89055710023007],[44.314419099861595,38.806488800018144],[44.26089880003963,38.71470180034788],[44.32161990043812,38.624092399944345],[44.30526959971229,38.44096239859584],[44.330015800189074,38.369103000403186],[44.439594599611155,38.3834674002004],[44.49833389998952,38.30893800028855],[44.40226849979149,38.25200030007386],[44.39269339998049,38.14644309976927],[44.24071270013104,37.96505640003289],[44.2385502002316,37.88413260003949],[44.31933650017942,37.87708370035256],[44.44495060019011,37.770917099644464],[44.55457179994869,37.780625800040696],[44.62548790014654,37.70664740035727],[44.589470300414064,37.438846499966075],[44.711065299623954,37.38019570007157],[44.81475099995873,37.2822180003605],[44.75756789993869,37.228341200286195],[44.778074000214986,37.09634300012942],[44.900166999907185,37.02357299969424],[44.903699000008885,36.86141000027135],[44.838355000283116,36.815753000100926],[45.030588999682664,36.740470999836816],[45.07031699982974,36.63045300030575],[45.026884999743004,36.60378499987792],[45.081586999740296,36.42549000026338],[45.23098499955813,36.43319799958806],[45.276430999890806,36.37646899964466],[45.31638599971416,36.18354699999412],[45.3813629996028,36.08417999970726],[45.34198670002621,35.99714720038304],[45.402834399787764,35.970626099714764],[45.55797430017384,35.99510269962991],[45.5657102998905,36.079979500253785],[45.64626879976532,36.129424700289746],[45.677937799689744,36.220260499622384],[45.846556300033285,36.220810599629544],[45.95517179963889,36.24358820033524],[45.98100749999617,36.419712699681384],[46.14545849971006,36.46331959991966],[46.280187500252964,36.3880409999922],[46.41324889961709,36.38497849995787],[46.49964129980617,36.41859730022526],[46.67548269976686,36.396374699932494],[46.788820900064536,36.42693040031776],[46.89716010005861,36.3830429997347],[47.11883810019822,36.25553839977738],[47.29856930003325,36.24776349988565],[47.39107490028647,36.33859579995624],[47.37135139994723,36.438047500192056],[47.291344799622834,36.68637979958811],[47.17411530028096,36.79166700003208]]]},"properties":{"shapeName":"آذربایجان غربی","shapeISO":"IR-02","shapeID":"17685810B23440170667410","shapeGroup":"IRN","shapeType":"ADM1"}},
    {"type":"Feature","geometry":{"type":"Polygon","coordinates":[[[54.561411599865494,29.62649729951079],[54.463073100243435,29.639005700053076],[54.2427863998725,29.596223300065276],[54.103058499750034,29.79289649967376],[54.0980585002996,29.93845329987994],[53.93999760010922,30.061517800306262],[53.864438599661696,30.202628800179014],[53.925551100303096,30.33401750010762],[53.90110469962224,30.464018799727853],[53.925550999579,30.56985389953786],[53.83887889944174,30.65680619964644],[53.44941779989159,30.74624460000831],[53.36358240020763,30.833196300269094],[52.969397900292904,31.01459339976566],[52.911895299928176,31.121261699867603],[52.8393895994505,31.171812600171393],[52.92883829974778,31.234596800202212],[52.978287599792964,31.32265040019587],[52.9507845995297,31.389879500338736],[52.80105659978233,31.494874299709238],[52.55965660027192,31.512379699563553],[52.37297919973031,31.55460450009764],[52.24742089995465,31.661545499825024],[52.130469099569325,31.65655259962284],[52.04630039994356,31.595709999916608],[51.9365720999225,31.413486599726866],[51.9685183995046,31.21348140024645],[51.8976830997953,30.98930979950768],[51.83240070003234,30.87597770021074],[51.8585137000473,30.800414499929275],[51.78545489942411,30.701524000032634],[51.887126899886596,30.60096949984262],[51.8335143997698,30.519298999948944],[51.82573459947224,30.43596299969272],[51.749065799646985,30.371517099834364],[51.62739419978254,30.440402600099958],[51.583781399991665,30.42346509963471],[51.37432789971285,30.475965199534357],[51.34960129996006,30.562633000012966],[51.17737359991173,30.649855700180467],[51.13653750010559,30.59846889981992],[51.201263500110485,30.477634399707824],[51.295155700275416,30.37179639958424],[51.26904280008523,30.27957179969883],[51.18209419978757,30.20790539961456],[51.0662557996655,30.20039870004001],[50.95597419984949,30.15595539972196],[50.8604157996495,29.973731499509142],[50.68679500028907,29.995958799658922],[50.603183099720354,29.943728199596762],[50.71374150007023,29.87317099994175],[50.74568789947705,29.783451100088257],[50.999867499985214,29.782892200214917],[51.17265179944104,29.714283200109662],[51.29709989964073,29.68650519975523],[51.2701571994952,29.608170899567426],[51.364605999966955,29.463438899985306],[51.44210809990892,29.47399790038287],[51.59266920012357,29.38288419974606],[51.674061400313406,29.234269600261882],[51.81545959958089,29.085658500039813],[51.96046439951249,28.821205700083055],[52.05407989986753,28.428423200070654],[52.17075169993109,28.13008200018419],[52.26520029985403,28.04424520025583],[52.36464880030195,28.01480700014298],[52.56326930013813,27.624514800217923],[52.62382840026049,27.563406699959273],[52.75466629961011,27.50285269989223],[52.943843300128265,27.32951559976516],[53.04967839993827,27.275062099536342],[53.13079369976947,27.272013600147602],[53.35358019976644,27.191174099904856],[53.40969609949548,27.113949900367686],[53.50025460006981,27.103395199628835],[53.54192390016789,27.15784319960403],[53.63220579985784,27.098396599523483],[53.78359999964033,27.045895600301776],[53.93332760008872,27.123677799490906],[54.034999400002334,27.23506370022966],[53.973330399778206,27.35423060006218],[54.10944819997451,27.408123999822806],[54.35306770021424,27.458684600214156],[54.628913399633745,27.46785089969933],[54.78086429954783,27.447566399569723],[55.12560220008152,27.430071000176554],[55.25672009975284,27.49562909970325],[55.44450379951081,27.651462800068202],[55.471450099642425,27.71868890007272],[55.575621999555665,27.82063339961178],[55.5006198997886,27.923411700189888],[55.38672500025859,27.99869299988211],[55.407838300297385,28.418416799795523],[55.44756109966505,28.560090799550835],[55.24783100010063,28.747038100128293],[55.28061059979939,28.995102499580753],[55.26227769955625,29.094546599645923],[55.16727250022575,29.249830399653263],[55.01309810029716,29.367881999854433],[54.83531429961528,29.579837399676308],[54.77308849943478,29.608722299994213],[54.561411599865494,29.62649729951079]]]},"properties":{"shapeName":"فارس","shapeISO":"IR-17","shapeID":"17685810B30738859401369","shapeGroup":"IRN","shapeType":"ADM1"}},
    {"type":"Feature","geometry":{"type":"Polygon","coordinates":[[[50.513893299736026,30.166060599517095],[50.41657629955665,30.182189700294487],[50.20000709974789,30.294962399695066],[50.115551000178584,30.153554299791153],[50.14625940005135,30.036646899834636],[50.132511400081114,29.93413280028858],[50.265921099679076,29.8229802997011],[50.32466109973001,29.735398600065366],[50.63788939977604,29.455900299659163],[50.67050779959533,29.268687199954343],[50.6433755997042,29.130741900018734],[50.834945799609045,29.12978749989327],[50.917103599851316,29.06499389964881],[50.91464779955635,28.995368299607378],[50.805089699829864,28.929868299882173],[50.89193079966674,28.818900600082657],[50.9988521995694,28.806078099624642],[51.06415200031461,28.715568899884886],[51.081532200150946,28.55081160007535],[51.16965970013513,28.365526899546808],[51.283051699676264,28.234350800249274],[51.263652799736974,28.13723859998146],[51.37907669963005,27.99665360008362],[51.50819530027292,27.874438299787755],[51.69377359977187,27.81997329992788],[51.854741900218585,27.84344719982846],[52.02830449995275,27.842079099870602],[52.19774139954603,27.703915500300127],[52.432697500289464,27.64743939960863],[52.5045721995474,27.60102689967175],[52.58479000025835,27.49085469968469],[52.67389610022491,27.450316699955806],[52.57851780005649,27.380208299773244],[52.73792139975285,27.274306499945055],[52.83871449997423,27.32175170038073],[52.943843300128265,27.32951559976516],[52.75466629961011,27.50285269989223],[52.62382840026049,27.563406699959273],[52.56326930013813,27.624514800217923],[52.36464880030195,28.01480700014298],[52.26520029985403,28.04424520025583],[52.17075169993109,28.13008200018419],[52.05407989986753,28.428423200070654],[51.96046439951249,28.821205700083055],[51.81545959958089,29.085658500039813],[51.674061400313406,29.234269600261882],[51.59266920012357,29.38288419974606],[51.44210809990892,29.47399790038287],[51.364605999966955,29.463438899985306],[51.2701571994952,29.608170899567426],[51.29709989964073,29.68650519975523],[51.17265179944104,29.714283200109662],[50.999867499985214,29.782892200214917],[50.74568789947705,29.783451100088257],[50.71374150007023,29.87317099994175],[50.603183099720354,29.943728199596762],[50.53873379952529,29.967064700175797],[50.513893299736026,30.166060599517095]]]},"properties":{"shapeName":"بوشهر","shapeISO":"IR-07","shapeID":"17685810B83340129779815","shapeGroup":"IRN","shapeType":"ADM1"}},
    {"type":"Feature","geometry":{"type":"Polygon","coordinates":[[[48.58182639946881,38.46033830017245],[48.4251102996007,38.61328770026722],[48.36148899981754,38.59485379986302],[48.25265700012051,38.66190759965605],[48.19181360001767,38.75621530009607],[48.10721949948038,38.76907379951626],[48.02070279949464,38.837889800174196],[48.088234499922294,38.94695079963975],[48.27075319970044,38.967301800138046],[48.3392348998708,39.03410800038398],[48.3082693001881,39.10683489991078],[48.14084949990456,39.20820120012536],[48.13088669966152,39.271490400061964],[48.211088299985136,39.328950600090195],[48.36862209943041,39.37983610035582],[48.33219949990706,39.42870439968834],[48.03205839957553,39.69252749974436],[47.80604309960944,39.657497000386286],[47.75296900021925,39.60602299996151],[47.4205852997718,39.464804200153765],[47.36339899996392,39.42172560035624],[47.5049348998258,39.295435599573295],[47.52023589856793,39.18728340010887],[47.511623499624875,38.91589020007274],[47.596349599954124,38.82671439994965],[47.469401100280606,38.79088319999971],[47.43662180005606,38.7000513999522],[47.52579429966727,38.66976770041907],[47.464122499853545,38.47809639962918],[47.28717189856434,38.3022630000375],[47.47523689996302,38.1841984001361],[47.62329859985056,38.218094599885944],[47.72469419997742,38.212255499691594],[47.787473299952865,38.25142279952263],[47.85219970015606,38.146698500035825],[47.862480099577,38.00642140012758],[47.93664969962401,37.950026000099854],[47.884703799740635,37.891971099986336],[48.1047114998359,37.84919299965725],[48.151104499772885,37.810304100254086],[48.07526869969081,37.73391200023866],[48.01915309943604,37.61668469973915],[48.06082310010606,37.51473479977125],[48.156105500168735,37.476130700371584],[48.14943910013443,37.41612399982279],[48.225555299837254,37.36612480031931],[48.332504499583024,37.242513700047255],[48.39945019996679,37.25168270019651],[48.577515500140294,37.103058700098984],[48.73752350000956,37.18556410000326],[48.790026299674025,37.13917429985412],[48.92225489984378,37.17667369993137],[48.90475489951905,37.31445849966008],[48.75641259946195,37.43001419969562],[48.69446640030418,37.50724390038573],[48.67612940005182,37.597243400362686],[48.61223689981313,37.65197239980648],[48.651129499926526,37.78308309950552],[48.59195969948058,37.8030770997284],[48.570846500165885,37.89169390015343],[48.635848399584006,38.11837070004782],[48.690017699657176,38.22225620006361],[48.58306840008663,38.348926200383914],[48.58182639946881,38.46033830017245]]]},"properties":{"shapeName":"اردبیل","shapeISO":"IR-03","shapeID":"17685810B90918579754309","shapeGroup":"IRN","shapeType":"ADM1"}},
    {"type":"Feature","geometry":{"type":"Polygon","coordinates":[[[54.126115199656795,36.491659100087475],[54.37918230012309,36.52083269986923],[54.490577900050084,36.511384599619646],[54.70086549994295,36.6325006999474],[54.77809130027333,36.60027809985445],[54.86531689985509,36.629447700351136],[55.01004540017516,36.76722099954952],[55.40089779949392,36.816957099690455],[55.57923929945417,36.95555979954514],[55.621465799706925,37.09917579982334],[55.68674499968205,37.163908499777506],[55.720081400236495,37.271131900117155],[55.90842299982165,37.33234049961442],[56.00398519965728,37.35946389963931],[56.0125413999657,37.46452439988121],[56.118710999912764,37.63474760012173],[56.21566029968312,37.85948219984368],[56.31038939995091,37.910313599592996],[56.28897559954436,38.08465830014052],[56.02138579971495,38.07767659959546],[55.748332999768195,38.12527799968001],[55.44277799960503,38.08611100022256],[55.38472199962064,38.041943999516036],[55.127655499801506,37.9491995995819],[54.95461859966872,37.79935879966894],[54.86620489943664,37.76702529967787],[54.782754799494455,37.63433989966671],[54.79251510029172,37.52548889999281],[54.67366760007974,37.43705500008821],[54.586762099791144,37.46003119988001],[54.397659699835344,37.36069949978213],[54.24467789986522,37.31998559985561],[53.970649099876084,37.34603730028124],[53.98669299978218,37.20914360009709],[54.04161829964488,37.0559213996529],[54.035901000031174,36.80779860002542],[53.86221480017292,36.7815592002969],[53.86193479985121,36.68610910005498],[53.96472040022633,36.67528500020268],[54.0983354995837,36.61972179952147],[54.126115199656795,36.491659100087475]]]},"properties":{"shapeName":"گلستان","shapeISO":"IR-24","shapeID":"17685810B1629292304739","shapeGroup":"IRN","shapeType":"ADM1"}},
    {"type":"Feature","geometry":{"type":"Polygon","coordinates":[[[56.53206519944945,36.66750340036168],[56.75846280031806,36.70389219976528],[56.76929579986131,36.615829799905384],[56.86874790029543,36.53777299992407],[56.76818539973647,36.41832699999111],[56.70318279974646,36.39332950015637],[56.80040799982936,36.23860719996236],[56.73123879943108,36.08998510013231],[56.72179530011306,35.8599842000109],[56.9154125998117,35.69275679978654],[57.04819759973947,35.537746300151696],[56.99125130020741,35.441913999731355],[57.052363700124715,35.32108359962848],[57.01069399982828,35.22357320024304],[56.84374269956601,35.19774250011636],[56.69095770003787,35.0624637997646],[56.56206259980917,35.052460299803045],[56.453723700188675,34.99996089957591],[56.22797359950209,34.710417199793994],[56.438446799680094,34.682447999975295],[56.739850100301965,34.78273269995418],[56.8515220996652,34.919123199775925],[56.86457539943518,34.97440449986783],[57.00069390020337,34.99801179980477],[57.127645699489506,35.06607139957549],[57.31765359983382,35.096072099547825],[57.558497300310194,35.051070099905246],[57.57294349974279,35.000103899875114],[57.711561899961794,34.919961099924876],[57.78628739974374,34.819956500092474],[57.714894899879766,34.78440069953268],[57.556690100068124,34.59799999970028],[57.640448699847695,34.52050580030249],[57.76600670014915,34.34715940028616],[57.95212410004723,34.306881399956694],[58.035183199944754,34.2391031000281],[58.189081099713064,34.24160289965414],[58.264087099839855,34.321329700205524],[58.370726699877366,34.28930549954924],[58.465204099689515,34.12743910013444],[58.636321699986524,34.0216000999647],[58.70577449979339,34.09993700009255],[58.979670799967494,34.094656500297276],[59.264687599453225,34.1479891997418],[59.34719300025682,34.107986900075446],[59.53609060030101,34.10409639962921],[59.5905363996352,34.0243694003276],[59.70859459996086,34.00520639975559],[59.99829169980217,34.00186879980532],[60.14416860020077,33.85631199959914],[60.37195950003098,33.99215290033612],[60.533075999757614,34.000249500314226],[60.5374214996026,34.15069699996661],[60.68649599979062,34.310707999974284],[60.918372999914084,34.30475599978962],[60.7423459996682,34.52694500011171],[60.897271999902955,34.56726000034877],[60.984492000305636,34.6197580003315],[61.00381899944733,34.711317000279394],[61.0681510001686,34.81270500023561],[61.132569999505904,35.135872999639275],[61.09713100019553,35.25799099958499],[61.19029599956076,35.292864999819926],[61.1874590000329,35.39959199957116],[61.282579200170005,35.53790330019717],[61.22622599993002,35.65068960004504],[61.261943999516006,35.813333000217824],[61.21166699943251,35.93750000022487],[61.13933289949375,35.95198390013695],[61.22665180014053,36.163512999725185],[61.142499999675294,36.39277799990481],[61.18600310016302,36.56432079966521],[61.128864499497126,36.64429509993897],[60.67522049962639,36.62221159958568],[60.34554229983735,36.629393900208356],[60.266905000065776,36.75720950011839],[60.16959409998776,36.84783729975163],[60.04306869986067,37.02076349963585],[59.93106619964544,37.042300599792895],[59.77184780003597,37.125349499579784],[59.56028119961775,37.13116769952978],[59.43519369942976,37.30408289980602],[59.39689769966918,37.31730289970909],[59.392130999645985,37.47913740017094],[59.35347939985445,37.52841619954802],[59.229249700013725,37.51204989988304],[59.06027799992978,37.62999999990012],[58.83611100012263,37.69944399984075],[58.78638899955274,37.66166699973229],[58.665278000179626,37.65499999985019],[58.55,37.705832999493396],[58.50277799960503,37.65138899970265],[58.38843410005376,37.6269846000593],[58.31120479956189,37.66222200014522],[58.37091340003343,37.58467449972841],[58.3274269001314,37.325849999777745],[58.422985599805656,37.25639970008615],[58.38270599958224,37.20779219965033],[58.24714760018168,37.1811205003109],[58.159014799593365,37.075130500372325],[58.24409359963994,37.04695399962742],[58.30105270012206,36.9644638998891],[58.25881320016913,36.91083520028434],[58.098808300262874,36.868892900187234],[58.09630770024023,36.61444129972625],[57.96379570031138,36.5794443001144],[57.777397599519645,36.630273699771465],[57.58878009962194,36.734164499492124],[57.3487695994375,36.80972559985662],[57.017920100132585,36.87111809992041],[56.65873729968666,36.772784300155365],[56.53206519944945,36.66750340036168]]]},"properties":{"shapeName":"خراسان رضوی","shapeISO":"IR-11","shapeID":"17685810B98247647047819","shapeGroup":"IRN","shapeType":"ADM1"}},
    {"type":"Feature","geometry":{"type":"Polygon","coordinates":[[[59.463574699712694,30.51679460029061],[59.7852572996847,30.663189699944724],[59.93415520000252,30.753187699852504],[59.9583219996606,30.897354399985602],[60.00054129994112,30.928746899749683],[60.165552599772695,30.931526500047994],[60.299170999642,31.022637900218967],[60.248611799494995,31.12430569994814],[60.423616199528055,31.235699600156465],[60.658353599539055,31.285972399506704],[60.82863770006986,31.40597659964044],[60.85605699953095,31.486519199501515],[60.813483499463985,31.708701300224902],[60.818752200153995,32.011723699788945],[60.88292100000422,32.197735999516794],[60.81477099948211,32.481294800114995],[60.70958139976182,32.69585549993144],[60.62941389993159,33.02123339980159],[60.583377500071606,33.12990449999273],[60.63405480008902,33.22814119995644],[60.824354900058665,33.399797999578084],[60.902795199738705,33.53996650005399],[60.703418200089914,33.54551999984818],[60.581277299807596,33.597023300185185],[60.54689369988438,33.73140949984861],[60.582213499453474,33.805443699766954],[60.533075999757614,34.000249500314226],[60.37195950003098,33.99215290033612],[60.14416860020077,33.85631199959914],[59.99829169980217,34.00186879980532],[59.70859459996086,34.00520639975559],[59.5905363996352,34.0243694003276],[59.53609060030101,34.10409639962921],[59.34719300025682,34.107986900075446],[59.264687599453225,34.1479891997418],[58.979670799967494,34.094656500297276],[58.70577449979339,34.09993700009255],[58.636321699986524,34.0216000999647],[58.465204099689515,34.12743910013444],[58.370726699877366,34.28930549954924],[58.264087099839855,34.321329700205524],[58.189081099713064,34.24160289965414],[58.035183199944754,34.2391031000281],[57.95212410004723,34.306881399956694],[57.76600670014915,34.34715940028616],[57.640448699847695,34.52050580030249],[57.556690100068124,34.59799999970028],[57.714894899879766,34.78440069953268],[57.78628739974374,34.819956500092474],[57.711561899961794,34.919961099924876],[57.57294349974279,35.000103899875114],[57.558497300310194,35.051070099905246],[57.31765359983382,35.096072099547825],[57.127645699489506,35.06607139957549],[57.00069390020337,34.99801179980477],[56.86457539943518,34.97440449986783],[56.8515220996652,34.919123199775925],[56.739850100301965,34.78273269995418],[56.438446799680094,34.682447999975295],[56.22797359950209,34.710417199793994],[55.995368599980964,34.38021829973479],[55.919532700074114,34.245775100140804],[55.58118359954352,34.23938549974105],[55.47867820003893,34.251885399891364],[55.49784400020053,33.52909189967147],[55.38645200025968,33.364923600044165],[55.511733700050286,33.25157940036911],[55.67424120007138,32.955746899799635],[55.807579499794144,32.78740560018832],[55.972033800019915,32.739631200219776],[56.2403767002246,32.576569099984056],[56.362328400235526,32.40573190020706],[56.54372559955681,32.23156369970502],[56.653450599965254,32.08738390004697],[56.59678119989252,31.999611400245954],[56.60483779982468,31.92210599979211],[56.7734586995594,31.955720799875053],[56.913186800230676,31.95822170027128],[57.10263739969628,31.89960519962034],[57.36792699993117,31.84293939953369],[57.533491499732975,31.823491099834428],[57.746555199762724,31.75599170035673],[57.944345600169356,31.710712599806698],[58.07823709986235,31.658771200130843],[58.3029668000778,31.537926400083336],[58.499923699818964,31.39237660020001],[58.621875499654664,31.274033500046016],[58.780493000151864,31.155415499625633],[59.0585552001624,31.00847799995978],[59.07856120003942,30.907916600171006],[59.19383930004369,30.81680069979251],[59.463574699712694,30.51679460029061]]]},"properties":{"shapeName":"خراسان جنوبی","shapeISO":"IR-10","shapeID":"17685810B5034457967489","shapeGroup":"IRN","shapeType":"ADM1"}},
    {"type":"Feature","geometry":{"type":"Polygon","coordinates":[[[58.843814199765575,26.48310649996506],[58.879653499909125,26.353383000025474],[58.940205699533465,26.336709400218695],[58.98298460025916,26.2172626997139],[59.074936100320826,26.051149500149336],[59.08048919991671,25.99615200001483],[59.00104410030502,25.93170419988894],[59.210219999653305,25.75447999965229],[59.23577249990103,25.636700099929726],[59.21435559953136,25.51710050028788],[59.214365799641996,25.516947600251626],[59.217990699711095,25.467651399892247],[59.30944780017592,25.45273089981123],[59.48650909991511,25.46592669985739],[59.611690799590804,25.389477500086628],[59.7888302998785,25.40499640006385],[59.89230829998809,25.34984749996221],[60.07233559980813,25.380227800172918],[60.181161699952554,25.33517079979265],[60.296285300026625,25.383724400260917],[60.40217560022381,25.3580910995247],[60.454961399449076,25.425510300160283],[60.57727419974458,25.429296699583062],[60.62699189975643,25.301262499664688],[61.15944529996068,25.16907610018194],[61.182378600292225,25.123650599895313],[61.39878439958045,25.06686529969386],[61.47200469955732,25.10222060000075],[61.514489100191895,25.179278600327166],[61.617836199481076,25.17686199968159],[61.65058180030991,25.305812499946967],[61.6765230001364,25.64520999954192],[61.725023000111435,25.726315000337024],[61.84006700029187,25.744840000265867],[61.825097999772936,25.96122099984933],[61.860170000145445,26.17596999971579],[61.91656900015926,26.253725999855078],[62.02957199974804,26.333425999710187],[62.13513499978046,26.271696000270254],[62.21501099965798,26.26792900012333],[62.3142169997148,26.51989799959307],[62.44002099966946,26.56481899999693],[62.60409800012269,26.576273000298784],[62.753536799483754,26.645016399587234],[63.19488999967382,26.647958000161623],[63.185978999731105,26.836725999805083],[63.24318400004165,26.841412000063826],[63.25109439988671,27.0921506001701],[63.307125300192524,27.129646099887623],[63.276900999981194,27.21815899983801],[63.19871599984356,27.25943600037118],[62.94715200016475,27.201894999854403],[62.81072299946692,27.224168999999392],[62.79652899961371,27.333315999833587],[62.848422899797015,27.462939100359222],[62.82895450025006,27.764462900242677],[62.7610214998424,28.025923099971124],[62.792960499627384,28.27890439971833],[62.59719099996471,28.248420000282863],[62.488770999482085,28.37340500024061],[62.38948600027874,28.43224799964554],[62.04390599976216,28.510134000383857],[61.914098999569205,28.561548999886497],[61.66289300021185,28.783827999862353],[61.50725899970314,29.06168599980907],[61.42790599966219,29.127943000269283],[61.4267630000125,29.19881999974325],[61.352908999950444,29.27598299951586],[61.373050999803866,29.339274999941324],[61.16252379983354,29.53333869972124],[60.87285499985842,29.85854559979964],[61.51171450012413,30.538583999851767],[61.80480800028903,30.839427399654824],[61.78196540018314,30.91118900017227],[61.82240249957573,30.967325800145602],[61.8303691996789,31.091861800082086],[61.77163079952186,31.20625880010357],[61.77838489964347,31.302269400112777],[61.70666730025573,31.3758960003002],[60.85605699953095,31.486519199501515],[60.82863770006986,31.40597659964044],[60.658353599539055,31.285972399506704],[60.423616199528055,31.235699600156465],[60.248611799494995,31.12430569994814],[60.299170999642,31.022637900218967],[60.165552599772695,30.931526500047994],[60.00054129994112,30.928746899749683],[59.9583219996606,30.897354399985602],[59.93415520000252,30.753187699852504],[59.7852572996847,30.663189699944724],[59.463574699712694,30.51679460029061],[59.42496119969968,30.25262589976552],[59.449406599435065,29.993447499502565],[59.43217989948283,29.907895499577705],[59.463571699574345,29.374269100138918],[59.51746349944102,29.18343930038344],[59.56940919967491,29.092323800203246],[59.496903199722965,28.960930000219378],[59.53940909955037,28.870367100161616],[59.56274150012018,28.69036760018463],[59.560794399541976,28.489803999954688],[59.23050630022561,28.476473199978273],[59.073828399960746,28.42369039999204],[59.16143919985922,28.25071859998343],[59.148384300195346,28.127376299876403],[59.033903799920495,28.115130399748182],[58.933823099456504,28.029801099840938],[58.89049009943858,27.89812349989967],[58.89854239971203,27.55895819986108],[58.83103640010984,27.25367349993212],[58.85992860022475,27.071448999871507],[58.9118741997346,26.988666599783812],[58.85354169958981,26.8247712003307],[58.99049260025333,26.759219999503443],[59.01604509960174,26.66254660004563],[59.00035510000794,26.50032289998188],[58.843814199765575,26.48310649996506]]]},"properties":{"shapeName":"سیستان و بلوچستان","shapeISO":"IR-16","shapeID":"17685810B65996934059620","shapeGroup":"IRN","shapeType":"ADM1"}},
    {"type":"Feature","geometry":{"type":"Polygon","coordinates":[[[50.90818869954887,34.151882599602345],[51.00847050011356,34.26438399962194],[51.021250100212,34.38244649960632],[51.147365100119316,34.439110500149525],[51.325986399852525,34.44105990029419],[51.80078159989097,34.51098399971187],[51.83416779950437,34.505955900044796],[51.91434539962057,34.69690279962458],[51.96490459976752,34.865238699706254],[51.73322719967558,35.00162980027511],[51.599328900208604,35.01773160033315],[51.49488000011195,35.104407500106106],[51.20569989983056,35.17412969992574],[51.082918200214806,35.17135159969661],[51.012359100292315,35.13801510021676],[50.849009299739464,35.173028599690156],[50.64984039961479,34.99968030030567],[50.705123000126434,34.86828679979601],[50.48177939979951,34.85662150018214],[50.43400009942508,34.75745140016204],[50.34121769953725,34.759950500115565],[50.251488699443996,34.81467870006202],[50.1314835999882,34.77467450012813],[50.086204600162205,34.583562100110896],[50.1595406995437,34.468554900188565],[50.26982609989466,34.452997600059234],[50.42455429964127,34.277442500171276],[50.42844430006443,34.2113239998028],[50.51706020026808,34.18993390012946],[50.6581783002884,34.254103999500046],[50.79623989965171,34.23605369951866],[50.90818869954887,34.151882599602345]]]},"properties":{"shapeName":"قم","shapeISO":"IR-19","shapeID":"17685810B1706611058442","shapeGroup":"IRN","shapeType":"ADM1"}},
    {"type":"Feature","geometry":{"type":"Polygon","coordinates":[[[50.8479126997114,36.294016100362796],[50.63845129978773,36.335547799691255],[50.49594280022012,36.34221419972556],[50.40966399969386,36.30226609950097],[50.43206360005513,36.24524509958172],[50.60094850027315,36.16665039979614],[50.60261549980555,36.09748180014503],[50.533446499956085,36.01387039959934],[50.42594110010174,36.00164959954941],[50.37316180027693,35.89830849963761],[50.2504030000984,35.80693800028854],[50.243710699589144,35.64775079995951],[50.16787489950707,35.596360299788046],[50.22954420010478,35.5413610001101],[50.353439299983734,35.570529300187104],[50.39702139961793,35.638353599539016],[50.701588499909406,35.67414579948911],[51.02781290014531,35.742413700232134],[51.24320170019837,35.93997719988789],[51.41654309998415,35.89859820004693],[51.40654310018397,35.97720899949576],[51.45929649953388,36.140099500091935],[51.20153190007716,36.162488099945904],[50.8479126997114,36.294016100362796]]]},"properties":{"shapeName":"البرز","shapeISO":"IR-05","shapeID":"17685810B57153227405324","shapeGroup":"IRN","shapeType":"ADM1"}},
    {"type":"Feature","geometry":{"type":"Polygon","coordinates":[[[48.332504499583024,37.242513700047255],[48.225555299837254,37.36612480031931],[48.14943910013443,37.41612399982279],[48.156105500168735,37.476130700371584],[48.06082310010606,37.51473479977125],[48.01915309943604,37.61668469973915],[48.07526869969081,37.73391200023866],[48.151104499772885,37.810304100254086],[48.1047114998359,37.84919299965725],[47.884703799740635,37.891971099986336],[47.93664969962401,37.950026000099854],[47.862480099577,38.00642140012758],[47.85219970015606,38.146698500035825],[47.787473299952865,38.25142279952263],[47.72469419997742,38.212255499691594],[47.62329859985056,38.218094599885944],[47.47523689996302,38.1841984001361],[47.28717189856434,38.3022630000375],[47.464122499853545,38.47809639962918],[47.52579429966727,38.66976770041907],[47.43662180005606,38.7000513999522],[47.469401100280606,38.79088319999971],[47.596349599954124,38.82671439994965],[47.511623499624875,38.91589020007274],[47.52023589856793,39.18728340010887],[47.5049348998258,39.295435599573295],[47.36339899996392,39.42172560035624],[47.29604429960477,39.36708959980524],[47.06311199991893,39.2454184001391],[47.05393739969128,39.19391180018948],[46.92554409958058,39.1647286999696],[46.79068599955929,39.08710969985282],[46.59833789957446,38.90575759973348],[46.52641090024292,38.88510030003886],[46.3632196996295,38.91630919960994],[46.18413629855138,38.84148760007275],[46.08043479982621,38.871461500248074],[45.91788009978683,38.87332210043462],[45.75894319966898,38.93018129972728],[45.61587109857237,38.94141650037125],[45.45290469969217,38.992996500288314],[45.371521400092604,38.95699009981331],[45.265126500187876,38.85393169998804],[45.27568370014268,38.73198769997242],[45.233457199889926,38.66503999859714],[45.3234642002127,38.48281340041814],[45.08206419980303,38.332534600091776],[45.20357367438561,38.200421898252046],[45.54122765113527,37.48068210269696],[45.71838249925298,37.26156952931041],[45.75237939968957,37.182227099900786],[45.982670500243444,37.162223299765515],[46.17545599989455,36.99555120032767],[46.28629439966687,36.971671100041306],[46.41241239971254,37.05638810013079],[46.52880799998928,37.01971990025322],[46.702982799716494,37.07167129859158],[46.86271149983588,36.99972969966598],[46.89882449965097,36.894715099921996],[46.872158699864144,36.79305269972235],[46.960494400096536,36.74722279859333],[47.09633609943148,36.83111080002345],[47.17411530028096,36.79166700003208],[47.256897300170294,36.865826700341984],[47.51274400003564,37.02139659987324],[47.604693298556924,37.041396399824066],[47.65886220023043,37.09834089981274],[47.77303429959329,37.08139420018222],[47.84247989942787,37.169175400024756],[48.0997138997767,37.155839499992965],[48.15027329957314,37.221124800069504],[48.332504499583024,37.242513700047255]]]},"properties":{"shapeName":"آذربایجان شرقی","shapeISO":"IR-01","shapeID":"17685810B81741200709170","shapeGroup":"IRN","shapeType":"ADM1"}},
    {"type":"Feature","geometry":{"type":"Polygon","coordinates":[[[56.60483779982468,31.92210599979211],[56.59678119989252,31.999611400245954],[56.653450599965254,32.08738390004697],[56.54372559955681,32.23156369970502],[56.362328400235526,32.40573190020706],[56.2403767002246,32.576569099984056],[55.972033800019915,32.739631200219776],[55.807579499794144,32.78740560018832],[55.67424120007138,32.955746899799635],[55.511733700050286,33.25157940036911],[55.38645200025968,33.364923600044165],[55.1833846002192,33.298528300041085],[54.991710400014995,33.12574570030387],[54.877815200111456,33.17158510007238],[54.725863800174295,33.06491780001653],[54.56419259950894,33.090469800241124],[54.38973819965827,33.065188700098474],[54.30751259952689,33.03019230033442],[54.20667390008049,32.887405500163766],[53.941383999472066,32.79880120031521],[53.80415589987496,32.67990259972527],[53.477196900116894,32.697961300273846],[53.16051450014413,32.605464099688504],[53.010786499497385,32.509065700321855],[53.05884599984307,32.332115900328574],[53.042456399643186,31.98988820008043],[53.00939689944738,31.879887599732967],[53.029399900085366,31.784885999489347],[53.19801769985702,31.613487600272606],[53.19440779958035,31.573212000233696],[53.059679700158085,31.51154030024469],[52.94606129988915,31.490152699787302],[52.80105659978233,31.494874299709238],[52.9507845995297,31.389879500338736],[52.978287599792964,31.32265040019587],[52.92883829974778,31.234596800202212],[52.8393895994505,31.171812600171393],[52.911895299928176,31.121261699867603],[52.969397900292904,31.01459339976566],[53.36358240020763,30.833196300269094],[53.44941779989159,30.74624460000831],[53.83887889944174,30.65680619964644],[53.925550999579,30.56985389953786],[53.90110469962224,30.464018799727853],[53.925551100303096,30.33401750010762],[53.864438599661696,30.202628800179014],[53.93999760010922,30.061517800306262],[54.0980585002996,29.93845329987994],[54.103058499750034,29.79289649967376],[54.2427863998725,29.596223300065276],[54.463073100243435,29.639005700053076],[54.561411599865494,29.62649729951079],[54.54252199949076,29.86012089995961],[54.54780200016222,30.178187600277568],[54.33668179982527,30.380965499558215],[54.51390919984976,30.512080499815283],[54.5650252997778,30.607910099571484],[54.52557930004474,31.00209189972145],[54.711696600118046,31.065981800020097],[54.92670689980366,31.027095100358622],[55.210609600252894,31.091256499687745],[55.494788999612695,31.185975999692687],[55.60701410002076,31.245708999670626],[55.74007560010892,31.274596499928577],[55.93841969960948,31.37681579990931],[56.01286519996904,31.464873699561622],[56.04203519976471,31.573491299983573],[56.121195299723354,31.59067120011582],[56.25565540027657,31.553493500125],[56.53872500025864,31.7076627001735],[56.57900439993318,31.711274099620027],[56.60483779982468,31.92210599979211]]]},"properties":{"shapeName":"یزد","shapeISO":"IR-31","shapeID":"17685810B18940918043543","shapeGroup":"IRN","shapeType":"ADM1"}},
    {"type":"Feature","geometry":{"type":"MultiPolygon","coordinates":[[[[55.24783100010063,28.747038100128293],[55.44756109966505,28.560090799550835],[55.407838300297385,28.418416799795523],[55.38672500025859,27.99869299988211],[55.5006198997886,27.923411700189888],[55.575621999555665,27.82063339961178],[55.471450099642425,27.71868890007272],[55.44450379951081,27.651462800068202],[55.25672009975284,27.49562909970325],[55.12560220008152,27.430071000176554],[54.78086429954783,27.447566399569723],[54.628913399633745,27.46785089969933],[54.35306770021424,27.458684600214156],[54.10944819997451,27.408123999822806],[53.973330399778206,27.35423060006218],[54.034999400002334,27.23506370022966],[53.93332760008872,27.123677799490906],[53.78359999964033,27.045895600301776],[53.63220579985784,27.098396599523483],[53.54192390016789,27.15784319960403],[53.50025460006981,27.103395199628835],[53.40969609949548,27.113949900367686],[53.35358019976644,27.191174099904856],[53.13079369976947,27.272013600147602],[53.04967839993827,27.275062099536342],[52.943843300128265,27.32951559976516],[52.83871449997423,27.32175170038073],[52.73792139975285,27.274306499945055],[52.82274359983734,27.209987499823285],[52.983513099749814,27.131662200050528],[53.47818000030685,26.961979399729557],[53.48375529966739,26.86843690004298],[53.60876670012317,26.77071969975441],[53.83346189964698,26.707778300028565],[54.02264360002215,26.75656419987797],[54.122883899572344,26.71342919999762],[54.28318639953278,26.727167800253824],[54.40390610028635,26.5961497001486],[54.53102609977475,26.597824200026878],[54.62387359978686,26.50017689954433],[54.84602560020136,26.518217199963885],[55.090848600182824,26.688080799988995],[55.33216939999784,26.78741030034513],[55.461414699828595,26.749610300075346],[55.54787919956544,26.79949139970836],[55.60926890003975,26.941684699489315],[55.67960079973716,26.973618600118357],[55.90140559978863,26.993876900298744],[56.08948589955469,27.111412500086885],[56.266010799558785,27.17366250012435],[56.3587924997741,27.181629200227462],[56.792489699440125,27.11929219977526],[56.778278599877524,27.07777529969036],[56.90833810002334,26.982678599737653],[56.94202389978318,26.898201400274445],[57.013464699536314,26.825022800062243],[57.0614427995456,26.699897200095734],[57.084524499705935,26.55881750022752],[57.05139590010077,26.45468749972838],[57.06215720029462,26.35750250024023],[57.12630469970219,26.229402799999264],[57.21548390016193,26.156434999975318],[57.17276219991567,26.02293639969514],[57.24468979999432,25.980194099578057],[57.32382510024826,25.78211099952307],[57.64421779991159,25.726690300017367],[57.72096309966736,25.74799219958038],[57.78466029953324,25.70379749975484],[57.97684919973085,25.68229889957462],[58.03848480003353,25.5934978001834],[58.12878729959425,25.55683790014905],[58.359674499578546,25.590912899510727],[58.59082139948805,25.591456199743845],[58.80291359968294,25.572777199907875],[58.900183800042385,25.524633299986874],[58.992705900157205,25.431208499972342],[59.10949309942703,25.403595799506604],[59.21435559953136,25.51710050028788],[59.23577249990103,25.636700099929726],[59.210219999653305,25.75447999965229],[59.00104410030502,25.93170419988894],[59.08048919991671,25.99615200001483],[59.074936100320826,26.051149500149336],[58.98298460025916,26.2172626997139],[58.940205699533465,26.336709400218695],[58.879653499909125,26.353383000025474],[58.843814199765575,26.48310649996506],[58.59630520002503,26.588939200383834],[58.50019369967953,26.685887900306398],[58.37268270014653,26.753380599834884],[58.19184570021895,26.77922279959256],[58.00350219946699,26.910336699978757],[57.79849219995509,26.94311540035551],[57.622928499850445,27.08089040017188],[57.55236970030148,27.176452799657056],[57.400145699664336,27.255896800297137],[57.31930709964297,27.34479389961882],[57.31642159967714,27.491848800381888],[57.358712499482294,27.57448799962151],[57.227739100179406,27.593077800200376],[57.42514640018629,27.81007480031184],[57.41653300029776,27.89062799958259],[57.204026499523366,27.89479569986173],[57.00818290022073,27.9739721998572],[57.007906599709884,28.138697599814407],[56.98401709970943,28.243977600286087],[56.74345079961478,28.263140799608266],[56.65205880017356,28.143136800023342],[56.44454869976272,28.130639800186657],[56.304544299479915,28.14814339959827],[56.13592360029395,28.211191699937046],[56.073977799535896,28.262862300254994],[56.036475199670804,28.376201599524222],[56.0595320003016,28.752317699702132],[56.045088899932864,28.881483600188062],[55.815632200265895,28.81953880037537],[55.537009799962334,28.697310600204105],[55.24783100010063,28.747038100128293]]],[[[56.15619640024374,26.99885360011359],[55.98372369968905,26.94971289973057],[55.892789699784885,26.903265599627787],[55.78806140011358,26.946370799572776],[55.734178900136214,26.91870809949927],[55.81836330012624,26.78929470019034],[55.671631599518776,26.76868480016344],[55.565028600089875,26.713983599663436],[55.25000000029985,26.64119009994323],[55.28332469977511,26.5393503003761],[55.489737499586,26.588622499628684],[55.70210079951232,26.68754500010175],[55.8520157997894,26.731972799704977],[55.94417939955969,26.69014889985192],[56.140734699846575,26.84147939975452],[56.16571779973674,26.904817799801663],[56.27627069983299,26.963872399791455],[56.15619640024374,26.99885360011359]]]]},"properties":{"shapeName":"هرمزگان","shapeISO":"IR-29","shapeID":"17685810B64963005891064","shapeGroup":"IRN","shapeType":"ADM1"}},
    {"type":"Feature","geometry":{"type":"Polygon","coordinates":[[[47.66411099982281,32.04854200011329],[47.73171100016259,31.939258000256586],[47.80985999953941,31.881373000063945],[47.86585499980845,31.783613000139894],[47.68297099991179,31.394608999905472],[47.68322559978168,30.99848720022419],[48.03218950004543,30.99537409983492],[48.026433099707845,30.482476399965947],[48.13138899980254,30.445000000050015],[48.21651749998267,30.315716499716757],[48.27273259942996,30.33608739951393],[48.41766599948636,30.17701889980242],[48.38466929984838,30.133917499493066],[48.45799749958502,29.994422499498796],[48.63419329988096,29.91915030004634],[48.69560930012915,29.960162300050172],[48.7935941998125,30.10645700029039],[48.926521799841225,30.03290649983518],[48.95414440004407,30.189311900124153],[48.868619399565716,30.31687779967075],[48.93968579985983,30.412142799650553],[49.01168310009507,30.39888329972456],[49.192544999552126,30.468761899741935],[49.19411440015949,30.40048689975066],[49.25223639959023,30.270009400113793],[49.24223749966092,30.131125000218617],[49.48485179977081,30.146544599753554],[49.566185099762606,30.005132700214006],[49.88125209970468,30.18431990014335],[50.038337599700526,30.210026799597188],[50.115551000178584,30.153554299791153],[50.20000709974789,30.294962399695066],[50.41657629955665,30.182189700294487],[50.513893299736026,30.166060599517095],[50.52075939962663,30.390424499591006],[50.38645549962166,30.524084000276446],[50.49800110017071,30.526636900372694],[50.51380399975483,30.620317999975782],[50.26105500028808,30.748990300362095],[50.21042249999846,30.932263499860653],[50.069747899745835,30.82993170008797],[49.95550529982978,30.877363999748866],[49.88961790004612,30.96881149995079],[49.97056349960587,31.019853899537907],[49.989162600073996,31.12787419993441],[49.95466999962082,31.211404700166838],[50.15270629985588,31.251831700172886],[50.29674319993876,31.35247339952781],[50.24792219954992,31.418217399713285],[50.29324149979544,31.481570599903307],[50.457542300137106,31.614155800150115],[50.2814445996886,31.85888430027029],[50.23962019981241,31.940171599939447],[50.11821759976249,32.01642920004758],[49.93682079974019,32.18607410023958],[49.91151819950534,32.316082400182665],[49.66445550002135,32.53697649996553],[49.50007719970307,32.703093199691466],[49.51553330002184,32.72518120025222],[49.367164499642,32.84455149975196],[49.2179906999109,32.85216579961201],[49.052784099706514,32.904753700323056],[48.89987559987907,32.88494070035307],[48.80656450025151,32.959628499655594],[48.70931639983206,32.93645899958324],[48.60315709982035,32.98035760032303],[48.38335419963664,32.96634020034003],[48.27969739991511,32.99712810028166],[48.04902660019752,32.805785199527406],[48.07276909971421,32.677089700229544],[47.96914660013556,32.6582799002972],[47.94257730030222,32.51701050013452],[48.02050390003501,32.5057074996015],[48.035453899677805,32.35396949979264],[47.98502349953492,32.26389349988517],[47.788433099607914,32.10346529988374],[47.66411099982281,32.04854200011329]]]},"properties":{"shapeName":"خوزستان","shapeISO":"IR-13","shapeID":"17685810B99097995033086","shapeGroup":"IRN","shapeType":"ADM1"}},
    {"type":"Feature","geometry":{"type":"Polygon","coordinates":[[[51.45929649953388,36.140099500091935],[51.40654310018397,35.97720899949576],[51.41654309998415,35.89859820004693],[51.24320170019837,35.93997719988789],[51.02781290014531,35.742413700232134],[50.701588499909406,35.67414579948911],[50.39702139961793,35.638353599539016],[50.353439299983734,35.570529300187104],[50.62594939954522,35.54747470019731],[50.76762459989544,35.48691849948921],[50.875360600311524,35.48525199997988],[50.9654125001868,35.42635890024309],[50.890686999505476,35.22746040017739],[50.849009299739464,35.173028599690156],[51.012359100292315,35.13801510021676],[51.082918200214806,35.17135159969661],[51.20569989983056,35.17412969992574],[51.49488000011195,35.104407500106106],[51.599328900208604,35.01773160033315],[51.73322719967558,35.00162980027511],[51.96490459976752,34.865238699706254],[52.036850299601724,35.003019199776304],[52.034630299748585,35.09051709968446],[51.95490099998119,35.15079680023217],[51.872398499491226,35.28107839964849],[51.9439291001479,35.36130209991205],[51.91240130007998,35.414411499491166],[51.929624199497255,35.55858429972568],[52.02518309972032,35.50164429994453],[52.257693700104255,35.4405263997736],[52.36880919988471,35.34107829952393],[52.56298689952587,35.4174689003695],[52.69771530022098,35.55192159950229],[52.782164199818,35.54108390010197],[52.87716630008475,35.62608849978449],[52.98467169993904,35.67275320020008],[53.156069799681575,35.796094299712195],[53.01745139946257,35.85359459961114],[52.92078250021228,35.83775730005942],[52.70493829966284,35.928036099786254],[52.54103999989616,35.94053699998261],[52.43575810005632,35.91220889962108],[52.37825549969159,35.848591699847134],[52.21797070018772,35.76553489951607],[52.07268559956083,35.763317299953485],[51.87823110028512,35.85998470003392],[51.76989219976525,36.000227099601034],[51.45929649953388,36.140099500091935]]]},"properties":{"shapeName":"تهران","shapeISO":"IR-08","shapeID":"17685810B50760377364469","shapeGroup":"IRN","shapeType":"ADM1"}}
    ]}